{
  "type": "FeatureCollection",
  "features": [
    {
      "type": "Feature",
      "properties": {
        "norad_id": 66480,
        "name": "STARLINK-35670",
        "group": "last-30-days",
        "lat": -35.92954455959016,
        "lon": 70.18480041687859,
        "alt_km": 399.30701724220035,
        "timestamp": "2025-12-04T03:47:53.335810+00:00",
        "meta_object_name": "STARLINK-35670",
        "meta_object_id": "2025-262AA",
        "meta_epoch": "2025-12-03T20:00:01.999008",
        "meta_mean_motion": 15.5816163,
        "meta_eccentricity": 0.0001369,
        "meta_inclination": 42.9997,
        "meta_ra_of_asc_node": 123.1535,
        "meta_arg_of_pericenter": 272.0854,
        "meta_mean_anomaly": 4.7504,
        "meta_ephemeris_type": 0,
        "meta_classification_type": "U",
        "meta_norad_cat_id": 66480,
        "meta_element_set_no": 999,
        "meta_rev_at_epoch": 420,
        "meta_bstar": -0.030448,
        "meta_mean_motion_dot": -0.02100038,
        "meta_mean_motion_ddot": 0,
        "tle_line1": "1 66480U 25262AA  25337.83335647 -.02100038  00000+0 -30448-1 0  9995",
        "tle_line2": "2 66480  42.9997 123.1535 0001369 272.0854   4.7504 15.58161630  4205"
      },
      "geometry": {
        "type": "Point",
        "coordinates": [
          70.18480041687859,
          -35.92954455959016
        ]
      }
    },
    {
      "type": "Feature",
      "properties": {
        "norad_id": 66481,
        "name": "STARLINK-35698",
        "group": "last-30-days",
        "lat": -35.08895320525775,
        "lon": 72.29752711338821,
        "alt_km": 399.1442387031275,
        "timestamp": "2025-12-04T03:47:53.335820+00:00",
        "meta_object_name": "STARLINK-35698",
        "meta_object_id": "2025-262AB",
        "meta_epoch": "2025-12-03T20:00:01.999008",
        "meta_mean_motion": 15.58167118,
        "meta_eccentricity": 0.0001536,
        "meta_inclination": 42.9996,
        "meta_ra_of_asc_node": 123.1488,
        "meta_arg_of_pericenter": 277.4605,
        "meta_mean_anomaly": 1.2974,
        "meta_ephemeris_type": 0,
        "meta_classification_type": "U",
        "meta_norad_cat_id": 66481,
        "meta_element_set_no": 999,
        "meta_rev_at_epoch": 420,
        "meta_bstar": -0.030719,
        "meta_mean_motion_dot": -0.02117177,
        "meta_mean_motion_ddot": 0,
        "tle_line1": "1 66481U 25262AB  25337.83335647 -.02117177  00000+0 -30719-1 0  9999",
        "tle_line2": "2 66481  42.9996 123.1488 0001536 277.4605   1.2974 15.58167118  4201"
      },
      "geometry": {
        "type": "Point",
        "coordinates": [
          72.29752711338821,
          -35.08895320525775
        ]
      }
    },
    {
      "type": "Feature",
      "properties": {
        "norad_id": 66482,
        "name": "STARLINK-35648",
        "group": "last-30-days",
        "lat": -34.21456379430899,
        "lon": 74.36066799947362,
        "alt_km": 399.24066249459247,
        "timestamp": "2025-12-04T03:47:53.335832+00:00",
        "meta_object_name": "STARLINK-35648",
        "meta_object_id": "2025-262AC",
        "meta_epoch": "2025-12-03T20:00:01.999008",
        "meta_mean_motion": 15.58163213,
        "meta_eccentricity": 0.0001378,
        "meta_inclination": 42.9994,
        "meta_ra_of_asc_node": 123.144,
        "meta_arg_of_pericenter": 272.7919,
        "meta_mean_anomaly": 7.8782,
        "meta_ephemeris_type": 0,
        "meta_classification_type": "U",
        "meta_norad_cat_id": 66482,
        "meta_element_set_no": 999,
        "meta_rev_at_epoch": 405,
        "meta_bstar": -0.03051,
        "meta_mean_motion_dot": -0.02104002,
        "meta_mean_motion_ddot": 0,
        "tle_line1": "1 66482U 25262AC  25337.83335647 -.02104002  00000+0 -30510-1 0  9992",
        "tle_line2": "2 66482  42.9994 123.1440 0001378 272.7919   7.8782 15.58163213  4052"
      },
      "geometry": {
        "type": "Point",
        "coordinates": [
          74.36066799947362,
          -34.21456379430899
        ]
      }
    },
    {
      "type": "Feature",
      "properties": {
        "norad_id": 66483,
        "name": "STARLINK-35654",
        "group": "last-30-days",
        "lat": -33.30476449379608,
        "lon": 76.38354403021941,
        "alt_km": 399.1236443555763,
        "timestamp": "2025-12-04T03:47:53.335842+00:00",
        "meta_object_name": "STARLINK-35654",
        "meta_object_id": "2025-262AD",
        "meta_epoch": "2025-12-03T20:00:01.999008",
        "meta_mean_motion": 15.58164544,
        "meta_eccentricity": 0.0001536,
        "meta_inclination": 42.9996,
        "meta_ra_of_asc_node": 123.1383,
        "meta_arg_of_pericenter": 271.8267,
        "meta_mean_anomaly": 10.7589,
        "meta_ephemeris_type": 0,
        "meta_classification_type": "U",
        "meta_norad_cat_id": 66483,
        "meta_element_set_no": 999,
        "meta_rev_at_epoch": 420,
        "meta_bstar": -0.030518,
        "meta_mean_motion_dot": -0.02104657,
        "meta_mean_motion_ddot": 0,
        "tle_line1": "1 66483U 25262AD  25337.83335647 -.02104657  00000+0 -30518-1 0  9997",
        "tle_line2": "2 66483  42.9996 123.1383 0001536 271.8267  10.7589 15.58164544  4206"
      },
      "geometry": {
        "type": "Point",
        "coordinates": [
          76.38354403021941,
          -33.30476449379608
        ]
      }
    },
    {
      "type": "Feature",
      "properties": {
        "norad_id": 66484,
        "name": "STARLINK-35371",
        "group": "last-30-days",
        "lat": -32.36220620425785,
        "lon": 78.3664279728035,
        "alt_km": 399.1287854305792,
        "timestamp": "2025-12-04T03:47:53.335852+00:00",
        "meta_object_name": "STARLINK-35371",
        "meta_object_id": "2025-262AE",
        "meta_epoch": "2025-12-03T20:00:01.999008",
        "meta_mean_motion": 15.58160438,
        "meta_eccentricity": 0.000139,
        "meta_inclination": 42.9996,
        "meta_ra_of_asc_node": 123.1346,
        "meta_arg_of_pericenter": 278.0771,
        "meta_mean_anomaly": 6.4373,
        "meta_ephemeris_type": 0,
        "meta_classification_type": "U",
        "meta_norad_cat_id": 66484,
        "meta_element_set_no": 999,
        "meta_rev_at_epoch": 420,
        "meta_bstar": -0.030604,
        "meta_mean_motion_dot": -0.02109587,
        "meta_mean_motion_ddot": 0,
        "tle_line1": "1 66484U 25262AE  25337.83335647 -.02109587  00000+0 -30604-1 0  9991",
        "tle_line2": "2 66484  42.9996 123.1346 0001390 278.0771   6.4373 15.58160438  4204"
      },
      "geometry": {
        "type": "Point",
        "coordinates": [
          78.3664279728035,
          -32.36220620425785
        ]
      }
    },
    {
      "type": "Feature",
      "properties": {
        "norad_id": 66485,
        "name": "STARLINK-34774",
        "group": "last-30-days",
        "lat": 39.44038610481938,
        "lon": -122.3329255448915,
        "alt_km": 357.77621863180775,
        "timestamp": "2025-12-04T03:47:53.335862+00:00",
        "meta_object_name": "STARLINK-34774",
        "meta_object_id": "2025-263A",
        "meta_epoch": "2025-12-03T20:00:01.999008",
        "meta_mean_motion": 15.6993817,
        "meta_eccentricity": 0.0001657,
        "meta_inclination": 42.9991,
        "meta_ra_of_asc_node": 177.6411,
        "meta_arg_of_pericenter": 280.997,
        "meta_mean_anomaly": 110.0728,
        "meta_ephemeris_type": 0,
        "meta_classification_type": "U",
        "meta_norad_cat_id": 66485,
        "meta_element_set_no": 999,
        "meta_rev_at_epoch": 420,
        "meta_bstar": -0.017864,
        "meta_mean_motion_dot": -0.01952472,
        "meta_mean_motion_ddot": 0,
        "tle_line1": "1 66485U 25263A   25337.83335647 -.01952472  00000+0 -17864-1 0  9994",
        "tle_line2": "2 66485  42.9991 177.6411 0001657 280.9970 110.0728 15.69938170  4200"
      },
      "geometry": {
        "type": "Point",
        "coordinates": [
          -122.3329255448915,
          39.44038610481938
        ]
      }
    },
    {
      "type": "Feature",
      "properties": {
        "norad_id": 66486,
        "name": "STARLINK-34844",
        "group": "last-30-days",
        "lat": 40.030057486029754,
        "lon": -119.96742658490923,
        "alt_km": 357.7230856508204,
        "timestamp": "2025-12-04T03:47:53.335873+00:00",
        "meta_object_name": "STARLINK-34844",
        "meta_object_id": "2025-263B",
        "meta_epoch": "2025-12-03T20:00:01.999008",
        "meta_mean_motion": 15.69959615,
        "meta_eccentricity": 0.0001559,
        "meta_inclination": 42.999,
        "meta_ra_of_asc_node": 177.6354,
        "meta_arg_of_pericenter": 274.6256,
        "meta_mean_anomaly": 118.3471,
        "meta_ephemeris_type": 0,
        "meta_classification_type": "U",
        "meta_norad_cat_id": 66486,
        "meta_element_set_no": 999,
        "meta_rev_at_epoch": 415,
        "meta_bstar": -0.018085,
        "meta_mean_motion_dot": -0.01975234,
        "meta_mean_motion_ddot": 0,
        "tle_line1": "1 66486U 25263B   25337.83335647 -.01975234  00000+0 -18085-1 0  9992",
        "tle_line2": "2 66486  42.9990 177.6354 0001559 274.6256 118.3471 15.69959615  4151"
      },
      "geometry": {
        "type": "Point",
        "coordinates": [
          -119.96742658490923,
          40.030057486029754
        ]
      }
    }
  ]
}